[{"OBJECT_NAME":"STARLINK-30117","OBJECT_ID":"2023-067Q","EPOCH":"2026-03-09T00:31:23.930400","MEAN_MOTION":15.02540581,"ECCENTRICITY":0.0001437,"INCLINATION":43.0093,"RA_OF_ASC_NODE":278.5291,"ARG_OF_PERICENTER":272.1211,"MEAN_ANOMALY":87.9467,"EPHEMERIS_TYPE":0,"CLASSIFICATION_TYPE":"U","NORAD_CAT_ID":56702,"ELEMENT_SET_NO":999,"REV_AT_EPOCH":15555,"BSTAR":5.340765e-5,"MEAN_MOTION_DOT":5.18e-6,"MEAN_MOTION_DDOT":0},{"OBJECT_NAME":"H-2A R\/B","OBJECT_ID":"2009-002J","EPOCH":"2026-03-09T23:38:52.170720","MEAN_MOTION":15.01829324,"ECCENTRICITY":0.00333022,"INCLINATION":98.2328,"RA_OF_ASC_NODE":87.9691,"ARG_OF_PERICENTER":111.7239,"MEAN_ANOMALY":248.7534,"EPHEMERIS_TYPE":0,"CLASSIFICATION_TYPE":"U","NORAD_CAT_ID":33500,"ELEMENT_SET_NO":999,"REV_AT_EPOCH":92943,"BSTAR":0.00033449169,"MEAN_MOTION_DOT":4.347e-5,"MEAN_MOTION_DDOT":0}]
